; CVP-Lite blank  box inner 310x210x125 mm
; fanfold 600 mm  board C  blank 946 x 464 mm
G21 G90 G94
M63 P4
G4 P0.2
; feed board onto the bed
G91 G1 A946.0 F30000
G90
M62 P4
G4 P0.3
; crease CX y=125.0
G0 X976.00 Y65.00
M62 P2
G4 P0.1
G1 X408.00 Y65.00 F36000
M63 P2
G4 P0.1
; crease CY x=568.0
G0 X348.00 Y65.00
M62 P3
G4 P0.1
G1 X348.00 Y279.00 F36000
M63 P3
G4 P0.1
; crease CX y=339.0
G0 X408.00 Y279.00
M62 P2
G4 P0.1
G1 X976.00 Y279.00 F36000
M63 P2
G4 P0.1
; crease CY x=125.0
G0 X791.00 Y279.00
M62 P3
G4 P0.1
G1 X791.00 Y65.00 F36000
M63 P3
G4 P0.1
; crease CY x=439.0
G0 X477.00 Y65.00
M62 P3
G4 P0.1
G1 X477.00 Y279.00 F36000
M63 P3
G4 P0.1
; crease CY x=886.0
G0 X30.00 Y271.00
M62 P3
G4 P0.1
G1 X30.00 Y73.00 F36000
M63 P3
G4 P0.1
; cut KY x=886.0
G0 X30.00 Y133.00
M62 P1
G4 P0.1
G1 X30.00 Y125.00 F36000
M63 P1
G4 P0.1
; cut KX y=125.0
G0 X90.00 Y125.00
M62 P0
G4 P0.1
G1 X408.00 Y125.00 F36000
M63 P0
G4 P0.1
; cut KY x=568.0
G0 X348.00 Y125.00
M62 P1
G4 P0.1
G1 X348.00 Y0.00 F36000
M63 P1
G4 P0.1
; cut KX y=13.0
G0 X408.00 Y13.00
M62 P0
G4 P0.1
G1 X537.00 Y13.00 F36000
M63 P0
G4 P0.1
; cut KY x=439.0
G0 X477.00 Y0.00
M62 P1
G4 P0.1
G1 X477.00 Y125.00 F36000
M63 P1
G4 P0.1
; cut KY x=439.0
G0 X477.00 Y339.00
M62 P1
G4 P0.1
G1 X477.00 Y464.00 F36000
M63 P1
G4 P0.1
; cut KX y=451.0
G0 X537.00 Y451.00
M62 P0
G4 P0.1
G1 X408.00 Y451.00 F36000
M63 P0
G4 P0.1
; cut KY x=568.0
G0 X348.00 Y464.00
M62 P1
G4 P0.1
G1 X348.00 Y339.00 F36000
M63 P1
G4 P0.1
; cut KX y=339.0
G0 X408.00 Y339.00
M62 P0
G4 P0.1
G1 X90.00 Y339.00 F36000
M63 P0
G4 P0.1
; cut KY x=886.0
G0 X30.00 Y339.00
M62 P1
G4 P0.1
G1 X30.00 Y331.00 F36000
M63 P1
G4 P0.1
; cut KX y=331.0
G0 X90.00 Y331.00
M62 P0
G4 P0.1
G1 X30.00 Y331.00 F36000
M63 P0
G4 P0.1
; cut KX y=464.0
G0 X30.00 Y464.00
M62 P0
G4 P0.1
G1 X976.00 Y464.00 F36000
M63 P0
G4 P0.1
; cut KX y=451.0
G0 X976.00 Y451.00
M62 P0
G4 P0.1
G1 X851.00 Y451.00 F36000
M63 P0
G4 P0.1
; cut KY x=125.0
G0 X791.00 Y464.00
M62 P1
G4 P0.1
G1 X791.00 Y339.00 F36000
M63 P1
G4 P0.1
; cut KY x=125.0
G0 X791.00 Y125.00
M62 P1
G4 P0.1
G1 X791.00 Y0.00 F36000
M63 P1
G4 P0.1
; cut KX y=13.0
G0 X851.00 Y13.00
M62 P0
G4 P0.1
G1 X976.00 Y13.00 F36000
M63 P0
G4 P0.1
; cut KX y=133.0
G0 X90.00 Y133.00
M62 P0
G4 P0.1
G1 X30.00 Y133.00 F36000
M63 P0
G4 P0.1
; cut KY x=946.0
G0 X-30.00 Y0.00
M62 P1
G4 P0.1
G1 X-30.00 Y600.00 F36000
M63 P1
G4 P0.1
; phase 3: clear scrap into the side chutes, then the bed belt carries the blank out
G0 X383.00 Y474.00
M62 P5
G4 P0.1
G1 X383.00 Y640.00 F60000
M63 P5
G4 P0.1
G0 X99.00 Y349.00
M62 P5
G4 P0.1
G1 X99.00 Y640.00 F60000
M63 P5
G4 P0.1
G0 X352.50 Y457.50
M62 P5
G4 P0.1
G1 X352.50 Y640.00 F60000
M63 P5
G4 P0.1
G0 X793.50 Y457.50
M62 P5
G4 P0.1
G1 X793.50 Y640.00 F60000
M63 P5
G4 P0.1
G0 X793.50 Y6.50
M62 P5
G4 P0.1
G1 X793.50 Y-40.00 F60000
M63 P5
G4 P0.1
G0 X352.50 Y6.50
M62 P5
G4 P0.1
G1 X352.50 Y-40.00 F60000
M63 P5
G4 P0.1
G0 X99.00 Y115.00
M62 P5
G4 P0.1
G1 X99.00 Y-40.00 F60000
M63 P5
G4 P0.1
G0 X0 Y0
G91 G1 B1600 F60000
G90
M63 P4
G0 X0 Y0
M2
