; CVP-Lite blank  box inner 310x210x125 mm
; fanfold 600 mm  board C  blank 746 x 564 mm
G21 G90 G94
M63 P4
G4 P0.2
; feed board onto the bed
G91 G1 A746.0 F30000
G90
M62 P4
G4 P0.3
; crease CX y=125.0
G0 X776.00 Y65.00
M62 P2
G4 P0.15
G1 X308.00 Y65.00 F18000
M63 P2
G4 P0.15
; crease CY x=468.0
G0 X248.00 Y65.00
M62 P3
G4 P0.15
G1 X248.00 Y379.00 F18000
M63 P3
G4 P0.15
; crease CX y=439.0
G0 X308.00 Y379.00
M62 P2
G4 P0.15
G1 X776.00 Y379.00 F18000
M63 P2
G4 P0.15
; crease CY x=125.0
G0 X591.00 Y379.00
M62 P3
G4 P0.15
G1 X591.00 Y65.00 F18000
M63 P3
G4 P0.15
; crease CY x=339.0
G0 X377.00 Y65.00
M62 P3
G4 P0.15
G1 X377.00 Y379.00 F18000
M63 P3
G4 P0.15
; crease CY x=686.0
G0 X30.00 Y371.00
M62 P3
G4 P0.15
G1 X30.00 Y73.00 F18000
M63 P3
G4 P0.15
; cut KY x=686.0
G0 X30.00 Y133.00
M62 P1
G4 P0.15
G1 X30.00 Y125.00 F18000
M63 P1
G4 P0.15
; cut KX y=125.0
G0 X90.00 Y125.00
M62 P0
G4 P0.15
G1 X308.00 Y125.00 F18000
M63 P0
G4 P0.15
; cut KY x=468.0
G0 X248.00 Y125.00
M62 P1
G4 P0.15
G1 X248.00 Y0.00 F18000
M63 P1
G4 P0.15
; cut KX y=20.0
G0 X308.00 Y20.00
M62 P0
G4 P0.15
G1 X437.00 Y20.00 F18000
M63 P0
G4 P0.15
; cut KY x=339.0
G0 X377.00 Y0.00
M62 P1
G4 P0.15
G1 X377.00 Y125.00 F18000
M63 P1
G4 P0.15
; cut KY x=125.0
G0 X591.00 Y125.00
M62 P1
G4 P0.15
G1 X591.00 Y0.00 F18000
M63 P1
G4 P0.15
; cut KX y=20.0
G0 X651.00 Y20.00
M62 P0
G4 P0.15
G1 X776.00 Y20.00 F18000
M63 P0
G4 P0.15
; cut KY x=125.0
G0 X591.00 Y439.00
M62 P1
G4 P0.15
G1 X591.00 Y564.00 F18000
M63 P1
G4 P0.15
; cut KX y=544.0
G0 X651.00 Y544.00
M62 P0
G4 P0.15
G1 X776.00 Y544.00 F18000
M63 P0
G4 P0.15
; cut KX y=564.0
G0 X776.00 Y564.00
M62 P0
G4 P0.15
G1 X30.00 Y564.00 F18000
M63 P0
G4 P0.15
; cut KX y=431.0
G0 X30.00 Y431.00
M62 P0
G4 P0.15
G1 X90.00 Y431.00 F18000
M63 P0
G4 P0.15
; cut KY x=686.0
G0 X30.00 Y431.00
M62 P1
G4 P0.15
G1 X30.00 Y439.00 F18000
M63 P1
G4 P0.15
; cut KX y=439.0
G0 X90.00 Y439.00
M62 P0
G4 P0.15
G1 X308.00 Y439.00 F18000
M63 P0
G4 P0.15
; cut KY x=468.0
G0 X248.00 Y439.00
M62 P1
G4 P0.15
G1 X248.00 Y564.00 F18000
M63 P1
G4 P0.15
; cut KX y=544.0
G0 X308.00 Y544.00
M62 P0
G4 P0.15
G1 X437.00 Y544.00 F18000
M63 P0
G4 P0.15
; cut KY x=339.0
G0 X377.00 Y564.00
M62 P1
G4 P0.15
G1 X377.00 Y439.00 F18000
M63 P1
G4 P0.15
; cut KX y=133.0
G0 X90.00 Y133.00
M62 P0
G4 P0.15
G1 X30.00 Y133.00 F18000
M63 P0
G4 P0.15
; cut KY x=746.0
G0 X-30.00 Y0.00
M62 P1
G4 P0.15
G1 X-30.00 Y600.00 F18000
M63 P1
G4 P0.15
M63 P4
G0 X0 Y0
M2
